[{"CCSDS_OMM_VERS":"2.0","COMMENT":"GENERATED VIA SPACE-TRACK.ORG API","CREATION_DATE":"2023-03-28T19:17:36","ORIGINATOR":"18 SPCS","OBJECT_NAME":"KSF3-C","OBJECT_ID":"2023-001K","CENTER_NAME":"EARTH","REF_FRAME":"TEME","TIME_SYSTEM":"UTC","MEAN_ELEMENT_THEORY":"SGP4","EPOCH":"2023-03-28T04:16:06.416256","MEAN_MOTION":"15.14678601","ECCENTRICITY":"0.00093840","INCLINATION":"97.4868","RA_OF_ASC_NODE":"147.9044","ARG_OF_PERICENTER":"296.2839","MEAN_ANOMALY":"63.7428","EPHEMERIS_TYPE":"0","CLASSIFICATION_TYPE":"U","NORAD_CAT_ID":"55018","ELEMENT_SET_NO":"999","REV_AT_EPOCH":"1279","BSTAR":"0.00084154000000","MEAN_MOTION_DOT":"0.00015542","MEAN_MOTION_DDOT":"0.0000000000000","SEMIMAJOR_AXIS":"6900.091","PERIOD":"95.070","APOAPSIS":"528.432","PERIAPSIS":"515.481","OBJECT_TYPE":"PAYLOAD","RCS_SIZE":"MEDIUM","COUNTRY_CODE":"LUXE","LAUNCH_DATE":"2023-01-03","SITE":"AFETR","DECAY_DATE":null,"FILE":"3873565","GP_ID":"229035273","TLE_LINE0":"0 KSF3-C","TLE_LINE1":"1 55018U 23001K   23087.17785204  .00015542  00000-0  84154-3 0  9991","TLE_LINE2":"2 55018  97.4868 147.9044 0009384 296.2839  63.7428 15.14678601 12793"},{"CCSDS_OMM_VERS":"2.0","COMMENT":"GENERATED VIA SPACE-TRACK.ORG API","CREATION_DATE":"2023-03-29T04:54:37","ORIGINATOR":"18 SPCS","OBJECT_NAME":"KSF3-C","OBJECT_ID":"2023-001K","CENTER_NAME":"EARTH","REF_FRAME":"TEME","TIME_SYSTEM":"UTC","MEAN_ELEMENT_THEORY":"SGP4","EPOCH":"2023-03-28T16:57:08.543232","MEAN_MOTION":"15.14696138","ECCENTRICITY":"0.00093480","INCLINATION":"97.4869","RA_OF_ASC_NODE":"148.4247","ARG_OF_PERICENTER":"294.2373","MEAN_ANOMALY":"65.7882","EPHEMERIS_TYPE":"0","CLASSIFICATION_TYPE":"U","NORAD_CAT_ID":"55018","ELEMENT_SET_NO":"999","REV_AT_EPOCH":"1287","BSTAR":"0.00086037000000","MEAN_MOTION_DOT":"0.00015900","MEAN_MOTION_DDOT":"0.0000000000000","SEMIMAJOR_AXIS":"6900.038","PERIOD":"95.069","APOAPSIS":"528.353","PERIAPSIS":"515.453","OBJECT_TYPE":"PAYLOAD","RCS_SIZE":"MEDIUM","COUNTRY_CODE":"LUXE","LAUNCH_DATE":"2023-01-03","SITE":"AFETR","DECAY_DATE":null,"FILE":"3873921","GP_ID":"229070399","TLE_LINE0":"0 KSF3-C","TLE_LINE1":"1 55018U 23001K   23087.70634888  .00015900  00000-0  86037-3 0  9991","TLE_LINE2":"2 55018  97.4869 148.4247 0009348 294.2373  65.7882 15.14696138 12876"},{"CCSDS_OMM_VERS":"2.0","COMMENT":"GENERATED VIA SPACE-TRACK.ORG API","CREATION_DATE":"2023-03-29T18:52:27","ORIGINATOR":"18 SPCS","OBJECT_NAME":"KSF3-C","OBJECT_ID":"2023-001K","CENTER_NAME":"EARTH","REF_FRAME":"TEME","TIME_SYSTEM":"UTC","MEAN_ELEMENT_THEORY":"SGP4","EPOCH":"2023-03-29T04:03:02.448576","MEAN_MOTION":"15.14713485","ECCENTRICITY":"0.00092830","INCLINATION":"97.4870","RA_OF_ASC_NODE":"148.8801","ARG_OF_PERICENTER":"292.5956","MEAN_ANOMALY":"67.4294","EPHEMERIS_TYPE":"0","CLASSIFICATION_TYPE":"U","NORAD_CAT_ID":"55018","ELEMENT_SET_NO":"999","REV_AT_EPOCH":"1294","BSTAR":"0.00093077000000","MEAN_MOTION_DOT":"0.00017218","MEAN_MOTION_DDOT":"0.0000000000000","SEMIMAJOR_AXIS":"6899.986","PERIOD":"95.067","APOAPSIS":"528.256","PERIAPSIS":"515.445","OBJECT_TYPE":"PAYLOAD","RCS_SIZE":"MEDIUM","COUNTRY_CODE":"LUXE","LAUNCH_DATE":"2023-01-03","SITE":"AFETR","DECAY_DATE":null,"FILE":"3874492","GP_ID":"229109034","TLE_LINE0":"0 KSF3-C","TLE_LINE1":"1 55018U 23001K   23088.16877834  .00017218  00000-0  93077-3 0  9998","TLE_LINE2":"2 55018  97.4870 148.8801 0009283 292.5956  67.4294 15.14713485 12943"},{"CCSDS_OMM_VERS":"2.0","COMMENT":"GENERATED VIA SPACE-TRACK.ORG API","CREATION_DATE":"2023-03-29T09:36:13","ORIGINATOR":"18 SPCS","OBJECT_NAME":"KSF3-C","OBJECT_ID":"2023-001K","CENTER_NAME":"EARTH","REF_FRAME":"TEME","TIME_SYSTEM":"UTC","MEAN_ELEMENT_THEORY":"SGP4","EPOCH":"2023-03-29T04:03:02.448576","MEAN_MOTION":"15.14713485","ECCENTRICITY":"0.00092830","INCLINATION":"97.4870","RA_OF_ASC_NODE":"148.8801","ARG_OF_PERICENTER":"292.5956","MEAN_ANOMALY":"67.4294","EPHEMERIS_TYPE":"0","CLASSIFICATION_TYPE":"U","NORAD_CAT_ID":"55018","ELEMENT_SET_NO":"999","REV_AT_EPOCH":"1294","BSTAR":"0.00093077000000","MEAN_MOTION_DOT":"0.00017218","MEAN_MOTION_DDOT":"0.0000000000000","SEMIMAJOR_AXIS":"6899.986","PERIOD":"95.067","APOAPSIS":"528.256","PERIAPSIS":"515.445","OBJECT_TYPE":"PAYLOAD","RCS_SIZE":"MEDIUM","COUNTRY_CODE":"LUXE","LAUNCH_DATE":"2023-01-03","SITE":"AFETR","DECAY_DATE":null,"FILE":"3874164","GP_ID":"229075584","TLE_LINE0":"0 KSF3-C","TLE_LINE1":"1 55018U 23001K   23088.16877834  .00017218  00000-0  93077-3 0  9998","TLE_LINE2":"2 55018  97.4870 148.8801 0009283 292.5956  67.4294 15.14713485 12943"},{"CCSDS_OMM_VERS":"2.0","COMMENT":"GENERATED VIA SPACE-TRACK.ORG API","CREATION_DATE":"2023-03-30T02:38:45","ORIGINATOR":"18 SPCS","OBJECT_NAME":"KSF3-C","OBJECT_ID":"2023-001K","CENTER_NAME":"EARTH","REF_FRAME":"TEME","TIME_SYSTEM":"UTC","MEAN_ELEMENT_THEORY":"SGP4","EPOCH":"2023-03-29T21:29:26.327904","MEAN_MOTION":"15.14739242","ECCENTRICITY":"0.00092370","INCLINATION":"97.4870","RA_OF_ASC_NODE":"149.5957","ARG_OF_PERICENTER":"289.7539","MEAN_ANOMALY":"70.2696","EPHEMERIS_TYPE":"0","CLASSIFICATION_TYPE":"U","NORAD_CAT_ID":"55018","ELEMENT_SET_NO":"999","REV_AT_EPOCH":"1305","BSTAR":"0.00099449000000","MEAN_MOTION_DOT":"0.00018417","MEAN_MOTION_DDOT":"0.0000000000000","SEMIMAJOR_AXIS":"6899.907","PERIOD":"95.066","APOAPSIS":"528.146","PERIAPSIS":"515.399","OBJECT_TYPE":"PAYLOAD","RCS_SIZE":"MEDIUM","COUNTRY_CODE":"LUXE","LAUNCH_DATE":"2023-01-03","SITE":"AFETR","DECAY_DATE":null,"FILE":"3874790","GP_ID":"229140809","TLE_LINE0":"0 KSF3-C","TLE_LINE1":"1 55018U 23001K   23088.89544361  .00018417  00000-0  99449-3 0  9995","TLE_LINE2":"2 55018  97.4870 149.5957 0009237 289.7539  70.2696 15.14739242 13057"},{"CCSDS_OMM_VERS":"2.0","COMMENT":"GENERATED VIA SPACE-TRACK.ORG API","CREATION_DATE":"2023-03-31T03:08:08","ORIGINATOR":"18 SPCS","OBJECT_NAME":"KSF3-C","OBJECT_ID":"2023-001K","CENTER_NAME":"EARTH","REF_FRAME":"TEME","TIME_SYSTEM":"UTC","MEAN_ELEMENT_THEORY":"SGP4","EPOCH":"2023-03-30T16:30:56.584224","MEAN_MOTION":"15.14768950","ECCENTRICITY":"0.00091820","INCLINATION":"97.4869","RA_OF_ASC_NODE":"150.3763","ARG_OF_PERICENTER":"286.6129","MEAN_ANOMALY":"73.4094","EPHEMERIS_TYPE":"0","CLASSIFICATION_TYPE":"U","NORAD_CAT_ID":"55018","ELEMENT_SET_NO":"999","REV_AT_EPOCH":"1317","BSTAR":"0.00104860000000","MEAN_MOTION_DOT":"0.00019441","MEAN_MOTION_DDOT":"0.0000000000000","SEMIMAJOR_AXIS":"6899.817","PERIOD":"95.064","APOAPSIS":"528.018","PERIAPSIS":"515.347","OBJECT_TYPE":"PAYLOAD","RCS_SIZE":"MEDIUM","COUNTRY_CODE":"LUXE","LAUNCH_DATE":"2023-01-03","SITE":"AFETR","DECAY_DATE":null,"FILE":"3875726","GP_ID":"229187628","TLE_LINE0":"0 KSF3-C","TLE_LINE1":"1 55018U 23001K   23089.68815491  .00019441  00000-0  10486-2 0  9999","TLE_LINE2":"2 55018  97.4869 150.3763 0009182 286.6129  73.4094 15.14768950 13178"},{"CCSDS_OMM_VERS":"2.0","COMMENT":"GENERATED VIA SPACE-TRACK.ORG API","CREATION_DATE":"2023-03-30T23:16:13","ORIGINATOR":"18 SPCS","OBJECT_NAME":"KSF3-C","OBJECT_ID":"2023-001K","CENTER_NAME":"EARTH","REF_FRAME":"TEME","TIME_SYSTEM":"UTC","MEAN_ELEMENT_THEORY":"SGP4","EPOCH":"2023-03-30T16:30:56.584224","MEAN_MOTION":"15.14768950","ECCENTRICITY":"0.00091820","INCLINATION":"97.4869","RA_OF_ASC_NODE":"150.3763","ARG_OF_PERICENTER":"286.6129","MEAN_ANOMALY":"73.4094","EPHEMERIS_TYPE":"0","CLASSIFICATION_TYPE":"U","NORAD_CAT_ID":"55018","ELEMENT_SET_NO":"999","REV_AT_EPOCH":"1317","BSTAR":"0.00104860000000","MEAN_MOTION_DOT":"0.00019441","MEAN_MOTION_DDOT":"0.0000000000000","SEMIMAJOR_AXIS":"6899.817","PERIOD":"95.064","APOAPSIS":"528.018","PERIAPSIS":"515.347","OBJECT_TYPE":"PAYLOAD","RCS_SIZE":"MEDIUM","COUNTRY_CODE":"LUXE","LAUNCH_DATE":"2023-01-03","SITE":"AFETR","DECAY_DATE":null,"FILE":"3875644","GP_ID":"229160011","TLE_LINE0":"0 KSF3-C","TLE_LINE1":"1 55018U 23001K   23089.68815491  .00019441  00000-0  10486-2 0  9999","TLE_LINE2":"2 55018  97.4869 150.3763 0009182 286.6129  73.4094 15.14768950 13178"},{"CCSDS_OMM_VERS":"2.0","COMMENT":"GENERATED VIA SPACE-TRACK.ORG API","CREATION_DATE":"2023-04-01T08:16:13","ORIGINATOR":"18 SPCS","OBJECT_NAME":"KSF3-C","OBJECT_ID":"2023-001K","CENTER_NAME":"EARTH","REF_FRAME":"TEME","TIME_SYSTEM":"UTC","MEAN_ELEMENT_THEORY":"SGP4","EPOCH":"2023-04-01T03:23:38.512608","MEAN_MOTION":"15.14821647","ECCENTRICITY":"0.00092300","INCLINATION":"97.4866","RA_OF_ASC_NODE":"151.8070","ARG_OF_PERICENTER":"280.5080","MEAN_ANOMALY":"79.5112","EPHEMERIS_TYPE":"0","CLASSIFICATION_TYPE":"U","NORAD_CAT_ID":"55018","ELEMENT_SET_NO":"999","REV_AT_EPOCH":"1339","BSTAR":"0.00094433000000","MEAN_MOTION_DOT":"0.00017523","MEAN_MOTION_DDOT":"0.0000000000000","SEMIMAJOR_AXIS":"6899.657","PERIOD":"95.061","APOAPSIS":"527.890","PERIAPSIS":"515.154","OBJECT_TYPE":"PAYLOAD","RCS_SIZE":"MEDIUM","COUNTRY_CODE":"LUXE","LAUNCH_DATE":"2023-01-03","SITE":"AFETR","DECAY_DATE":null,"FILE":"3876858","GP_ID":"229213422","TLE_LINE0":"0 KSF3-C","TLE_LINE1":"1 55018U 23001K   23091.14141797  .00017523  00000-0  94433-3 0  9998","TLE_LINE2":"2 55018  97.4866 151.8070 0009230 280.5080  79.5112 15.14821647 13390"}]